{"type": "FeatureCollection", "features": [ {"type": "Feature", "properties": {"norad_id": 38487, "name": "COSMOS 2251 DEB", "group": "cosmos-2251-debris", "lat": -72.13583905335533, "lon": -78.33985488673596, "alt_km": 512.3589772431033, "timestamp": "2025-12-10T11:33:53.782138+00:00", "meta": {"OBJECT_NAME": "COSMOS 2251 DEB", "OBJECT_ID": "1993-036BTX", "EPOCH": "2025-12-09T10:40:20.228448", "MEAN_MOTION": 15.16928428, "ECCENTRICITY": 0.002192, "INCLINATION": 73.9736, "RA_OF_ASC_NODE": 40.7247, "ARG_OF_PERICENTER": 212.6657, "MEAN_ANOMALY": 147.3184, "EPHEMERIS_TYPE": 0, "CLASSIFICATION_TYPE": "U", "NORAD_CAT_ID": 38487, "ELEMENT_SET_NO": 999, "REV_AT_EPOCH": 66750, "BSTAR": 0.002701932, "MEAN_MOTION_DOT": 0.00053983, "MEAN_MOTION_DDOT": 0}, "tle": {"line1": "1 38487U 93036BTX 25343.44467857  .00053983  00000+0  27019-2 0  9991", "line2": "2 38487  73.9736  40.7247 0021920 212.6657 147.3184 15.16928428667502"}}, "geometry": {"type": "Point", "coordinates": [-78.33985488673596, -72.13583905335533]}}, {"type": "Feature", "properties": {"norad_id": 39109, "name": "COSMOS 2251 DEB", "group": "cosmos-2251-debris", "lat": -19.494810663230897, "lon": 55.27283181023511, "alt_km": 692.0484388025789, "timestamp": "2025-12-10T11:33:53.782148+00:00", "meta": {"OBJECT_NAME": "COSMOS 2251 DEB", "OBJECT_ID": "1993-036BTY", "EPOCH": "2025-12-09T10:58:18.988608", "MEAN_MOTION": 14.70683686, "ECCENTRICITY": 0.00592583, "INCLINATION": 74.0426, "RA_OF_ASC_NODE": 231.4464, "ARG_OF_PERICENTER": 335.6145, "MEAN_ANOMALY": 202.0339, "EPHEMERIS_TYPE": 0, "CLASSIFICATION_TYPE": "U", "NORAD_CAT_ID": 39109, "ELEMENT_SET_NO": 999, "REV_AT_EPOCH": 65125, "BSTAR": 0.00089315049, "MEAN_MOTION_DOT": 5.561e-05, "MEAN_MOTION_DDOT": 0}, "tle": {"line1": "1 39109U 93036BTY 25343.45716422  .00005561  00000+0  89315-3 0  9996", "line2": "2 39109  74.0426 231.4464 0059258 335.6145 202.0339 14.70683686651254"}}, "geometry": {"type": "Point", "coordinates": [55.27283181023511, -19.494810663230897]}}, {"type": "Feature", "properties": {"norad_id": 39110, "name": "COSMOS 2251 DEB", "group": "cosmos-2251-debris", "lat": 10.025366924855472, "lon": 68.83839778395209, "alt_km": 633.5569125230068, "timestamp": "2025-12-10T11:33:53.782158+00:00", "meta": {"OBJECT_NAME": "COSMOS 2251 DEB", "OBJECT_ID": "1993-036BTZ", "EPOCH": "2025-12-03T13:14:13.055136", "MEAN_MOTION": 14.72215365, "ECCENTRICITY": 0.00964609, "INCLINATION": 73.9598, "RA_OF_ASC_NODE": 79.4668, "ARG_OF_PERICENTER": 313.6965, "MEAN_ANOMALY": 59.6182, "EPHEMERIS_TYPE": 0, "CLASSIFICATION_TYPE": "U", "NORAD_CAT_ID": 39110, "ELEMENT_SET_NO": 999, "REV_AT_EPOCH": 62349, "BSTAR": 0.00066560445, "MEAN_MOTION_DOT": 4.484e-05, "MEAN_MOTION_DDOT": 0}, "tle": {"line1": "1 39110U 93036BTZ 25337.55153999  .00004484  00000+0  66560-3 0  9996", "line2": "2 39110  73.9598  79.4668 0096460 313.6965  59.6182 14.72215365623496"}}, "geometry": {"type": "Point", "coordinates": [68.83839778395209, 10.025366924855472]}}, {"type": "Feature", "properties": {"norad_id": 39111, "name": "COSMOS 2251 DEB", "group": "cosmos-2251-debris", "lat": -35.818005200336366, "lon": 33.89206783855838, "alt_km": 526.9647420128049, "timestamp": "2025-12-10T11:33:53.782168+00:00", "meta": {"OBJECT_NAME": "COSMOS 2251 DEB", "OBJECT_ID": "1993-036BUA", "EPOCH": "2025-12-01T22:58:55.551360", "MEAN_MOTION": 15.11912111, "ECCENTRICITY": 0.00109111, "INCLINATION": 74.0059, "RA_OF_ASC_NODE": 63.5328, "ARG_OF_PERICENTER": 39.1207, "MEAN_ANOMALY": 321.0773, "EPHEMERIS_TYPE": 0, "CLASSIFICATION_TYPE": "U", "NORAD_CAT_ID": 39111, "ELEMENT_SET_NO": 999, "REV_AT_EPOCH": 8982, "BSTAR": 0.0056424119, "MEAN_MOTION_DOT": 0.00098096, "MEAN_MOTION_DDOT": 0}, "tle": {"line1": "1 39111U 93036BUA 25335.95758740  .00098096  00000+0  56424-2 0  9993", "line2": "2 39111  74.0059  63.5328 0010911  39.1207 321.0773 15.11912111 89826"}}, "geometry": {"type": "Point", "coordinates": [33.89206783855838, -35.818005200336366]}}, {"type": "Feature", "properties": {"norad_id": 39546, "name": "COSMOS 2251 DEB", "group": "cosmos-2251-debris", "lat": -67.43560071653525, "lon": 5.019934702976084, "alt_km": 578.022730411858, "timestamp": "2025-12-10T11:33:53.782178+00:00", "meta": {"OBJECT_NAME": "COSMOS 2251 DEB", "OBJECT_ID": "1993-036BUC", "EPOCH": "2025-12-10T03:59:23.244864", "MEAN_MOTION": 14.91933203, "ECCENTRICITY": 0.0044058, "INCLINATION": 73.9968, "RA_OF_ASC_NODE": 141.9703, "ARG_OF_PERICENTER": 302.2673, "MEAN_ANOMALY": 57.4244, "EPHEMERIS_TYPE": 0, "CLASSIFICATION_TYPE": "U", "NORAD_CAT_ID": 39546, "ELEMENT_SET_NO": 999, "REV_AT_EPOCH": 64398, "BSTAR": 0.0019196, "MEAN_MOTION_DOT": 0.00019813, "MEAN_MOTION_DDOT": 0}, "tle": {"line1": "1 39546U 93036BUC 25344.16624126  .00019813  00000+0  19196-2 0  9993", "line2": "2 39546  73.9968 141.9703 0044058 302.2673  57.4244 14.91933203643981"}}, "geometry": {"type": "Point", "coordinates": [5.019934702976084, -67.43560071653525]}}, {"type": "Feature", "properties": {"norad_id": 39547, "name": "COSMOS 2251 DEB", "group": "cosmos-2251-debris", "lat": 25.438737530704454, "lon": -164.83957832156864, "alt_km": 558.9745003204671, "timestamp": "2025-12-10T11:33:53.782188+00:00", "meta": {"OBJECT_NAME": "COSMOS 2251 DEB", "OBJECT_ID": "1993-036BUD", "EPOCH": "2025-12-08T21:19:55.077888", "MEAN_MOTION": 15.02877714, "ECCENTRICITY": 0.0005088, "INCLINATION": 74.0015, "RA_OF_ASC_NODE": 26.2621, "ARG_OF_PERICENTER": 23.5572, "MEAN_ANOMALY": 154.1498, "EPHEMERIS_TYPE": 0, "CLASSIFICATION_TYPE": "U", "NORAD_CAT_ID": 39547, "ELEMENT_SET_NO": 999, "REV_AT_EPOCH": 63967, "BSTAR": 0.002907, "MEAN_MOTION_DOT": 0.0003919, "MEAN_MOTION_DDOT": 0}, "tle": {"line1": "1 39547U 93036BUD 25342.88883192  .00039190  00000+0  29070-2 0  9993", "line2": "2 39547  74.0015  26.2621 0005088  23.5572 154.1498 15.02877714639676"}}, "geometry": {"type": "Point", "coordinates": [-164.83957832156864, 25.438737530704454]}}, {"type": "Feature", "properties": {"norad_id": 39553, "name": "COSMOS 2251 DEB", "group": "cosmos-2251-debris", "lat": 70.662078744905, "lon": 28.61119123641632, "alt_km": 761.3058277967357, "timestamp": "2025-12-10T11:33:53.782198+00:00", "meta": {"OBJECT_NAME": "COSMOS 2251 DEB", "OBJECT_ID": "1993-036BUK", "EPOCH": "2025-12-07T06:00:50.455872", "MEAN_MOTION": 13.99876591, "ECCENTRICITY": 0.02014092, "INCLINATION": 74.0304, "RA_OF_ASC_NODE": 339.5232, "ARG_OF_PERICENTER": 116.8065, "MEAN_ANOMALY": 245.3825, "EPHEMERIS_TYPE": 0, "CLASSIFICATION_TYPE": "U", "NORAD_CAT_ID": 39553, "ELEMENT_SET_NO": 999, "REV_AT_EPOCH": 75540, "BSTAR": 0.00088887208, "MEAN_MOTION_DOT": 1.532e-05, "MEAN_MOTION_DDOT": 0}, "tle": {"line1": "1 39553U 93036BUK 25341.25058398  .00001532  00000+0  88887-3 0  9993", "line2": "2 39553  74.0304 339.5232 0201409 116.8065 245.3825 13.99876591755403"}}, "geometry": {"type": "Point", "coordinates": [28.61119123641632, 70.662078744905]}}, {"type": "Feature", "properties": {"norad_id": 39554, "name": "COSMOS 2251 DEB", "group": "cosmos-2251-debris", "lat": -64.10648894438053, "lon": -126.90319638320912, "alt_km": 544.330909620192, "timestamp": "2025-12-10T11:33:53.782208+00:00", "meta": {"OBJECT_NAME": "COSMOS 2251 DEB", "OBJECT_ID": "1993-036BUL", "EPOCH": "2025-12-09T02:31:49.532160", "MEAN_MOTION": 15.09944132, "ECCENTRICITY": 0.00030494, "INCLINATION": 74.0198, "RA_OF_ASC_NODE": 272.1204, "ARG_OF_PERICENTER": 73.3792, "MEAN_ANOMALY": 298.0934, "EPHEMERIS_TYPE": 0, "CLASSIFICATION_TYPE": "U", "NORAD_CAT_ID": 39554, "ELEMENT_SET_NO": 999, "REV_AT_EPOCH": 64330, "BSTAR": 0.0036843194, "MEAN_MOTION_DOT": 0.00060265, "MEAN_MOTION_DDOT": 0}, "tle": {"line1": "1 39554U 93036BUL 25343.10543440  .00060265  00000+0  36843-2 0  9999", "line2": "2 39554  74.0198 272.1204 0003049  73.3792 298.0934 15.09944132643301"}}, "geometry": {"type": "Point", "coordinates": [-126.90319638320912, -64.10648894438053]}}, {"type": "Feature", "properties": {"norad_id": 39583, "name": "COSMOS 2251 DEB", "group": "cosmos-2251-debris", "lat": 16.580882927135157, "lon": -103.50820568124622, "alt_km": 597.544855412737, "timestamp": "2025-12-10T11:33:53.782218+00:00", "meta": {"OBJECT_NAME": "COSMOS 2251 DEB", "OBJECT_ID": "1993-036BUN", "EPOCH": "2025-12-08T00:17:58.189056", "MEAN_MOTION": 14.60283512, "ECCENTRICITY": 0.01370352, "INCLINATION": 73.9395, "RA_OF_ASC_NODE": 256.3131, "ARG_OF_PERICENTER": 10.5711, "MEAN_ANOMALY": 349.8282, "EPHEMERIS_TYPE": 0, "CLASSIFICATION_TYPE": "U", "NORAD_CAT_ID": 39583, "ELEMENT_SET_NO": 999, "REV_AT_EPOCH": 61710, "BSTAR": 0.0025519779, "MEAN_MOTION_DOT": 0.00014063, "MEAN_MOTION_DDOT": 0}, "tle": {"line1": "1 39583U 93036BUN 25342.01247904  .00014063  00000+0  25520-2 0  9991", "line2": "2 39583  73.9395 256.3131 0137035  10.5711 349.8282 14.60283512617104"}}, "geometry": {"type": "Point", "coordinates": [-103.50820568124622, 16.580882927135157]}}, {"type": "Feature", "properties": {"norad_id": 39585, "name": "COSMOS 2251 DEB", "group": "cosmos-2251-debris", "lat": -35.32826986895814, "lon": 137.31626362045213, "alt_km": 743.2980149873592, "timestamp": "2025-12-10T11:33:53.782228+00:00", "meta": {"OBJECT_NAME": "COSMOS 2251 DEB", "OBJECT_ID": "1993-036BUQ", "EPOCH": "2025-12-09T14:49:35.322816", "MEAN_MOTION": 14.58655096, "ECCENTRICITY": 0.0065405, "INCLINATION": 74.0411, "RA_OF_ASC_NODE": 307.2584, "ARG_OF_PERICENTER": 69.0888, "MEAN_ANOMALY": 291.7262, "EPHEMERIS_TYPE": 0, "CLASSIFICATION_TYPE": "U", "NORAD_CAT_ID": 39585, "ELEMENT_SET_NO": 999, "REV_AT_EPOCH": 62475, "BSTAR": 0.00049693, "MEAN_MOTION_DOT": 2.356e-05, "MEAN_MOTION_DDOT": 0}, "tle": {"line1": "1 39585U 93036BUQ 25343.61776994  .00002356  00000+0  49693-3 0  9996", "line2": "2 39585  74.0411 307.2584 0065405  69.0888 291.7262 14.58655096624759"}}, "geometry": {"type": "Point", "coordinates": [137.31626362045213, -35.32826986895814]}}]}